GLOBALSTAR M057         
1 25943U 99058A   24358.57771622 -.00000061  00000+0  28568-3 0  9992
2 25943  51.9971 126.5747 0002613  42.6866 317.4186 12.24805527145414
GLOBALSTAR M059         
1 25944U 99058B   24359.09132486 -.00000107  00000+0 -25280-3 0  9990
2 25944  52.0042 320.8618 0000582  15.2174  78.5606 11.99973238141776
GLOBALSTAR M056         
1 25945U 99058C   24358.85702653 -.00000114  00000+0 -30648-3 0  9995
2 25945  51.9988 327.9542 0000555 189.6675 178.5735 12.04775301141536
GLOBALSTAR M031         
1 25946U 99058D   24359.35767206 -.00000167  00000+0 -77523-3 0  9998
2 25946  51.9939 229.3878 0001433 135.8727  36.4707 12.16025025143512
GLOBALSTAR M039         
1 25961U 99062A   24358.62160811 -.00000084  00000+0  11183-3 0  9995
2 25961  51.9853  83.4494 0001933 325.2635  34.8105 12.62313747158078
GLOBALSTAR M034         
1 25962U 99062B   24358.34445228 -.00000125  00000+0 -70487-3 0  9992
2 25962  51.9869 108.4745 0014671  72.2375 321.1185 11.79437358117646
GLOBALSTAR M029         
1 25963U 99062C   24359.35634801 -.00000069  00000+0  21774-3 0  9993
2 25963  51.9770 208.3323 0003434 116.5360  54.0575 11.99889322148183
GLOBALSTAR M061         
1 25964U 99062D   24359.15212441 -.00000065  00000+0  25630-3 0  9995
2 25964  51.9806 288.0898 0006537   1.0041  89.2998 11.76769274100867
